BEIDOU-3 M6             
1 43582U 18062B   23277.58618638  .00000004  00000+0  00000+0 0  9997
2 43582  54.1711 215.8708 0005503   7.1764 352.8247  1.86229844 35263
BEIDOU-3 M12            
1 43602U 18067A   23278.05915785 -.00000002  00000+0  00000+0 0  9990
2 43602  54.2586 214.5130 0007362  16.7046 343.3152  1.86231507 34758
BEIDOU-3 M11            
1 43603U 18067B   23278.19298751 -.00000003  00000+0  00000+0 0  9994
2 43603  54.2556 214.4742 0004342   4.6304 355.3694  1.86231473 34781
BEIDOU-3 M13            
1 43622U 18072A   23278.15194436  .00000002  00000+0  00000+0 0  9990
2 43622  55.7950  95.4339 0003979 292.1781  67.8146  1.86231555 34297
BEIDOU-3 M14            
1 43623U 18072B   23278.55435189  .00000006  00000+0  00000+0 0  9992
2 43623  55.7974  95.4132 0002335 350.2060   9.8250  1.86231562 34296
BEIDOU-3 M16            
1 43647U 18078A   23278.18060946 -.00000101  00000+0  00000+0 0  9995
2 43647  54.8895 334.2768 0005997   3.1612 356.8988  1.86227324 33795
BEIDOU-3 M15            
1 43648U 18078B   23277.23649870 -.00000102  00000+0  00000+0 0  9991
2 43648  54.8858 334.3130 0002752   8.7113 351.3503  1.86232284 33796
BEIDOU-3 G1             
1 43683U 18085A   23278.58104920 -.00000287  00000+0  00000+0 0  9993
2 43683   1.5826 122.2531 0002035   7.7538 233.1832  1.00267951 18174
COSMOS 2529             
1 43687U 18086A   23278.26787566  .00000022  00000+0  00000+0 0  9992
2 43687  64.3132 225.9695 0010490 263.6146  96.2577  2.13102039 38276
BEIDOU-3 M17            
1 43706U 18093A   23276.84742785  .00000010  00000+0  00000+0 0  9995
2 43706  54.2541 215.8259 0009494 283.7160  76.1698  1.86232001 33150
BEIDOU-3 M18            
1 43707U 18093B   23278.32459413 -.00000004  00000+0  00000+0 0  9998
2 43707  54.2546 215.7674 0008003 311.8892  48.0367  1.86229896 33177
NAVSTAR 77 (USA 289)    
1 43873U 18109A   23277.99429934 -.00000002  00000+0  00000+0 0  9995
2 43873  55.2025 131.1531 0026225 190.0709 293.4605  2.00569998 35290
BEIDOU-3 IGSO-1         
1 44204U 19023A   23277.93513216 -.00000213  00000+0  00000+0 0  9995
2 44204  57.2676  47.9208 0023970 195.9306 226.0683  1.00273465 16476
BEIDOU-2 G8             
1 44231U 19027A   23278.57465612 -.00000255  00000+0  00000+0 0  9992
2 44231   2.0349  80.9960 0006965 135.1018 149.2998  1.00274443 16195
COSMOS 2534             
1 44299U 19030A   23278.32660455  .00000021  00000+0  00000+0 0  9995
2 44299  64.3860 225.8967 0012781 283.4575 255.7320  2.13101935 33914
BEIDOU-3 IGSO-2         
1 44337U 19035A   23278.62474148 -.00000145  00000+0  00000+0 0  9996
2 44337  55.1518 167.5169 0032894 195.7509 354.9759  1.00265053 15780
NAVSTAR 78 (USA 293)    
1 44506U 19056A   23276.49299999 -.00000110  00000+0  00000+0 0  9991
2 44506  55.8248  10.2866 0037838 186.7662 191.8053  2.00566064 30268
BEIDOU-3 M24            
1 44542U 19061A   23277.32215420  .00000007  00000+0  00000+0 0  9991
2 44542  54.4812 216.0458 0008510 347.0468  12.9236  1.86231512 27413
BEIDOU-3 M23            
1 44543U 19061B   23277.77040833  .00000003  00000+0  00000+0 0  9991
2 44543  54.4799 215.9995 0005711 333.3633 239.0679  1.86231872 27427
BEIDOU-3 IGSO-3         
1 44709U 19073A   23277.44012052 -.00000166  00000+0  00000+0 0  9995
2 44709  56.4857 291.4341 0035011 190.8259 169.1133  1.00272968 14564
BEIDOU-3 M22            
1 44793U 19078A   23278.24145370 -.00000101  00000+0  00000+0 0  9991
2 44793  54.7378 334.2380 0004765  10.6670 349.3991  1.86232249 26281
BEIDOU-3 M21            
1 44794U 19078B   23277.83499715 -.00000102  00000+0  00000+0 0  9992
2 44794  54.7118 334.2336 0002852 355.7733   4.2803  1.86232677 26287
COSMOS 2544             
1 44850U 19088A   23277.17384479  .00000023  00000+0  00000+0 0  9994
2 44850  65.0898 106.7909 0011127 248.7409 111.1910  2.13102225 29684
BEIDOU-3 M19            
1 44864U 19090A   23278.62625188  .00000006  00000+0  00000+0 0  9999
2 44864  55.7300  95.6026 0015163 274.0852  90.1865  1.86231873 25881
BEIDOU-3 M20            
1 44865U 19090B   23278.14799010  .00000002  00000+0  00000+0 0  9999
2 44865  55.7313  95.6513 0012891 289.4247 203.9752  1.86231813 25850
BEIDOU-3 G2             
1 45344U 20017A   23278.45663910 -.00000150  00000+0  00000+0 0  9991
2 45344   2.0686  17.8181 0003299 183.9684  56.5199  1.00272704 13374
COSMOS 2545             
1 45358U 20018A   23277.83994769 -.00000090  00000+0  00000+0 0  9990
2 45358  64.8339 346.8650 0011047 241.1094 118.8370  2.13102588 27643
BEIDOU-3 G3             
1 45807U 20040A   23278.55492726 -.00000363  00000+0  00000+0 0  9993
2 45807   0.5948 350.5778 0007756 316.6715  17.0758  1.00273456 12189
NAVSTAR 79 (USA 304)    
1 45854U 20041A   23278.54697372 -.00000027  00000+0  00000+0 0  9996
2 45854  55.9106  67.4917 0037359 187.0433 177.7442  2.00562816 24278
GALAXY 30 (G-30)        
1 46114U 20056C   23278.55655125  .00000028  00000+0  00000+0 0  9993
2 46114   0.0163 235.1075 0002616 326.2021 248.0336  1.00271287 11402
COSMOS 2547             
1 46805U 20075A   23277.55949793  .00000026  00000+0  00000+0 0  9995
2 46805  64.6135 225.4879 0007879 243.6122 116.2978  2.13102834 22886
NAVSTAR 80 (USA 309)    
1 46826U 20078A   23278.33622226  .00000017  00000+0  00000+0 0  9997
2 46826  54.2977 250.8043 0036643 194.8979 353.3563  2.00562844 21735
NAVSTAR 81 (USA 319)    
1 48859U 21054A   23278.12447740 -.00000112  00000+0  00000+0 0  9990
2 48859  55.3434  11.9932 0013197 214.5604   4.0153  2.00571965 16979
QZS-1R                  
1 49336U 21096A   23278.51988981 -.00000255  00000+0  00000+0 0  9995
2 49336  35.4180  94.4346 0745351 269.8649 331.6229  1.00282422  7124
GSAT0223 (GALILEO 27)   
1 49809U 21116A   23277.29379497 -.00000111  00000+0  00000+0 0  9994
2 49809  57.2820   8.2923 0003651 199.0596 122.7870  1.70476230 11351
GSAT0224 (GALILEO 28)   
1 49810U 21116B   23278.28085889 -.00000111  00000+0  00000+0 0  9995
2 49810  57.2828   8.2640 0002887 188.8831 131.2355  1.70476412 11394
COSMOS 2557             
1 52984U 22075A   23278.19152774 -.00000093  00000+0  00000+0 0  9993
2 52984  64.7515 349.0088 0012769 275.2602  84.6495  2.13102282  9702
COSMOS 2559             
1 54031U 22130A   23278.13361014 -.00000093  00000+0  00000+0 0  9993
2 54031  64.7227 349.1372 0007685 222.6384 137.3571  2.13101525  7672
COSMOS 2564             
1 54377U 22161A   23277.38802263  .00000027  00000+0  00000+0 0  9998
2 54377  64.7544 225.5520 0010021 224.4058 135.5043  2.13102191  6601
NAVSTAR 82 (USA 343)    
1 55268U 23009A   23275.90277778  .00000007  00000+0  00000+0 0  9991
2 55268  55.0856 187.2999 0003759  90.8584   3.1568  2.00557648  5410
BEIDOU-3 G4             
1 56564U 23066A   23278.50759972 -.00000122  00000+0  00000+0 0  9993
2 56564   2.7676 288.6847 0006114 223.2886 204.7278  1.00272156  1513
IRNSS-1J (NVS-01)       
1 56759U 23076A   23278.56550714 -.00000349  00000+0  00000+0 0  9990
2 56759   4.6601 271.4771 0007246 347.1663  88.5279  1.00272167  1230
